CTC2_L_00372016-03
1 12151U 25591NF  26037.47795139  .00000000  00000+0  00000-0 0  9994
2 12151  80.0000 180.0000 0000000   0.0000   0.0000 13.16009617    14
CTC2_L_00372016-04
1 12152U 25255DW  26037.47795139  .00000000  00000+0  00000-0 0  9992
2 12152  80.0000 180.0000 0000000   0.0000  90.0000 13.16009617    14
CTC2_L_00372017-01
1 12153U 26501UZ  26037.47795139  .00000000  00000+0  00000-0 0  9998
2 12153  80.0000 192.0000 0000000   0.0000 192.0000 13.16009617    11
CTC2_L_00372017-02
1 12154U 26825YF  26037.47795139  .00000000  00000+0  00000-0 0  9998
2 12154  80.0000 192.0000 0000000   0.0000 282.0000 13.16009617    12
CTC2_L_00372017-03
1 12155U 22466QA  26037.47795139  .00000000  00000+0  00000-0 0  9996
2 12155  80.0000 192.0000 0000000   0.0000  12.0000 13.16009617    14
CTC2_L_00372017-04
1 12156U 23368LL  26037.47795139  .00000000  00000+0  00000-0 0  9999
2 12156  80.0000 192.0000 0000000   0.0000 102.0000 13.16009617    15
CTC2_L_00372018-01
1 12157U 23130QC  26037.47795139  .00000000  00000+0  00000-0 0  9997
2 12157  80.0000 204.0000 0000000   0.0000 204.0000 13.16009617    13
CTC2_L_00372018-02
1 12158U 23287IV  26037.47795139  .00000000  00000+0  00000-0 0  9991
2 12158  80.0000 204.0000 0000000   0.0000 294.0000 13.16009617    13
CTC2_L_00372018-03
1 12159U 26169IE  26037.47795139  .00000000  00000+0  00000-0 0  9994
2 12159  80.0000 204.0000 0000000   0.0000  24.0000 13.16009617    15
CTC2_L_00372018-04
1 12160U 22333OX  26037.47795139  .00000000  00000+0  00000-0 0  9995
2 12160  80.0000 204.0000 0000000   0.0000 114.0000 13.16009617    17
CTC2_L_00372019-01
1 12161U 23962LJ  26037.47795139  .00000000  00000+0  00000-0 0  9995
2 12161  80.0000 216.0000 0000000   0.0000 216.0000 13.16009617    14
CTC2_L_00372019-02
1 12162U 24332CW  26037.47795139  .00000000  00000+0  00000-0 0  9998
2 12162  80.0000 216.0000 0000000   0.0000 306.0000 13.16009617    15
CTC2_L_00372019-03
1 12163U 25338BO  26037.47795139  .00000000  00000+0  00000-0 0  9996
2 12163  80.0000 216.0000 0000000   0.0000  36.0000 13.16009617    16
CTC2_L_00372019-04
1 12164U 23753JO  26037.47795139  .00000000  00000+0  00000-0 0  9996
2 12164  80.0000 216.0000 0000000   0.0000 126.0000 13.16009617    17
CTC2_L_00372020-01
1 12165U 26783QP  26037.47795139  .00000000  00000+0  00000-0 0  9993
2 12165  80.0000 228.0000 0000000   0.0000 228.0000 13.16009617    14
CTC2_L_00372020-02
1 12166U 22529MQ  26037.47795139  .00000000  00000+0  00000-0 0  9998
2 12166  80.0000 228.0000 0000000   0.0000 318.0000 13.16009617    15
CTC2_L_00372020-03
1 12167U 24916UH  26037.47795139  .00000000  00000+0  00000-0 0  9991
2 12167  80.0000 228.0000 0000000   0.0000  48.0000 13.16009617    16
CTC2_L_00372020-04
1 12168U 25025X   26037.47795139  .00000000  00000+0  00000-0 0  9994
2 12168  80.0000 228.0000 0000000   0.0000 138.0000 13.16009617    17
CTC2_L_00372021-01
1 12169U 22032VY  26037.47795139  .00000000  00000+0  00000-0 0  9990
2 12169  80.0000 240.0000 0000000   0.0000 240.0000 13.16009617    16
CTC2_L_00372021-02
1 12170U 24495ML  26037.47795139  .00000000  00000+0  00000-0 0  9997
2 12170  80.0000 240.0000 0000000   0.0000 330.0000 13.16009617    18
CTC2_L_00372021-03
1 12171U 24891BX  26037.47795139  .00000000  00000+0  00000-0 0  9998
2 12171  80.0000 240.0000 0000000   0.0000  60.0000 13.16009617    19
CTC2_L_00372021-04
1 12172U 23148VZ  26037.47795139  .00000000  00000+0  00000-0 0  9993
2 12172  80.0000 240.0000 0000000   0.0000 150.0000 13.16009617    10
CTC2_L_00372022-01
1 12173U 24913H   26037.47795139  .00000000  00000+0  00000-0 0  9995
2 12173  80.0000 252.0000 0000000   0.0000 252.0000 13.16009617    17
CTC2_L_00372022-02
1 12174U 22399SD  26037.47795139  .00000000  00000+0  00000-0 0  9992
2 12174  80.0000 252.0000 0000000   0.0000 342.0000 13.16009617    18
CTC2_L_00372022-03
1 12175U 24510TR  26037.47795139  .00000000  00000+0  00000-0 0  9990
2 12175  80.0000 252.0000 0000000   0.0000  72.0000 13.16009617    19
CTC2_L_00372022-04
1 12176U 25060AZ  26037.47795139  .00000000  00000+0  00000-0 0  9992
2 12176  80.0000 252.0000 0000000   0.0000 162.0000 13.16009617    10
CTC2_L_00372023-01
1 12177U 24608HE  26037.47795139  .00000000  00000+0  00000-0 0  9990
2 12177  80.0000 264.0000 0000000   0.0000 264.0000 13.16009617    17
CTC2_L_00372023-02
1 12178U 25652WD  26037.47795139  .00000000  00000+0  00000-0 0  9991
2 12178  80.0000 264.0000 0000000   0.0000 354.0000 13.16009617    18
CTC2_L_00372023-03
1 12179U 25996VM  26037.47795139  .00000000  00000+0  00000-0 0  9993
2 12179  80.0000 264.0000 0000000   0.0000  84.0000 13.16009617    19
CTC2_L_00372023-04
1 12180U 22865BA  26037.47795139  .00000000  00000+0  00000-0 0  9997
2 12180  80.0000 264.0000 0000000   0.0000 174.0000 13.16009617    11
CTC2_L_00372024-01
1 12181U 25012AJ  26037.47795139  .00000000  00000+0  00000-0 0  9995
2 12181  80.0000 276.0000 0000000   0.0000 276.0000 13.16009617    18
CTC2_L_00372024-02
1 12182U 26666LQ  26037.47795139  .00000000  00000+0  00000-0 0  9992
2 12182  80.0000 276.0000 0000000   0.0000   6.0000 13.16009617    10
CTC2_L_00372024-03
1 12183U 23508HH  26037.47795139  .00000000  00000+0  00000-0 0  9995
2 12183  80.0000 276.0000 0000000   0.0000  96.0000 13.16009617    10
CTC2_L_00372024-04
1 12184U 25728FT  26037.47795139  .00000000  00000+0  00000-0 0  9992
2 12184  80.0000 276.0000 0000000   0.0000 186.0000 13.16009617    11
CTC2_L_00372025-01
1 12185U 25682CK  26037.47795139  .00000000  00000+0  00000-0 0  9992
2 12185  80.0000 288.0000 0000000   0.0000 288.0000 13.16009617    18
CTC2_L_00372025-02
1 12186U 26344OE  26037.47795139  .00000000  00000+0  00000-0 0  9999
2 12186  80.0000 288.0000 0000000   0.0000  18.0000 13.16009617    10
CTC2_L_00372025-03
1 12187U 25609BW  26037.47795139  .00000000  00000+0  00000-0 0  9993
2 12187  80.0000 288.0000 0000000   0.0000 108.0000 13.16009617    11
CTC2_L_00372025-04
1 12188U 24779ZJ  26037.47795139  .00000000  00000+0  00000-0 0  9991
2 12188  80.0000 288.0000 0000000   0.0000 198.0000 13.16009617    11
CTC2_L_00372026-01
1 12189U 26618LP  26037.47795139  .00000000  00000+0  00000-0 0  9996
2 12189  80.0000 300.0000 0000000   0.0000 300.0000 13.16009617    12
CTC2_L_00372026-02
1 12190U 23900HI  26037.47795139  .00000000  00000+0  00000-0 0  9999
2 12190  80.0000 300.0000 0000000   0.0000  30.0000 13.16009617    14
CTC2_L_00372026-03
1 12191U 24109BR  26037.47795139  .00000000  00000+0  00000-0 0  9992
2 12191  80.0000 300.0000 0000000   0.0000 120.0000 13.16009617    15
CTC2_L_00372026-04
1 12192U 23390TF  26037.47795139  .00000000  00000+0  00000-0 0  9994
2 12192  80.0000 300.0000 0000000   0.0000 210.0000 13.16009617    16
CTC2_L_00372027-01
1 12193U 23662X   26037.47795139  .00000000  00000+0  00000-0 0  9997
2 12193  80.0000 312.0000 0000000   0.0000 312.0000 13.16009617    13
CTC2_L_00372027-02
1 12194U 26406OU  26037.47795139  .00000000  00000+0  00000-0 0  9997
2 12194  80.0000 312.0000 0000000   0.0000  42.0000 13.16009617    14
CTC2_L_00372027-03
1 12195U 24569AB  26037.47795139  .00000000  00000+0  00000-0 0  9996
2 12195  80.0000 312.0000 0000000   0.0000 132.0000 13.16009617    15
CTC2_L_00372027-04
1 12196U 24697DU  26037.47795139  .00000000  00000+0  00000-0 0  9999
2 12196  80.0000 312.0000 0000000   0.0000 222.0000 13.16009617    16
CTC2_L_00372028-01
1 12197U 22393CM  26037.47795139  .00000000  00000+0  00000-0 0  9991
2 12197  80.0000 324.0000 0000000   0.0000 324.0000 13.16009617    13
CTC2_L_00372028-02
1 12198U 26204BN  26037.47795139  .00000000  00000+0  00000-0 0  9997
2 12198  80.0000 324.0000 0000000   0.0000  54.0000 13.16009617    14
CTC2_L_00372028-03
1 12199U 22021VT  26037.47795139  .00000000  00000+0  00000-0 0  9991
2 12199  80.0000 324.0000 0000000   0.0000 144.0000 13.16009617    15
CTC2_L_00372028-04
1 12200U 22655PA  26037.47795139  .00000000  00000+0  00000-0 0  9997
2 12200  80.0000 324.0000 0000000   0.0000 234.0000 13.16009617    18
CTC2_L_00372029-01
1 12201U 24111SO  26037.47795139  .00000000  00000+0  00000-0 0  9997
2 12201  80.0000 336.0000 0000000   0.0000 336.0000 13.16009617    15
CTC2_L_00372029-02
1 12202U 22632SY  26037.47795139  .00000000  00000+0  00000-0 0  9994
2 12202  80.0000 336.0000 0000000   0.0000  66.0000 13.16009617    16
CTC2_L_00372029-03
1 12203U 24254WU  26037.47795139  .00000000  00000+0  00000-0 0  9997
2 12203  80.0000 336.0000 0000000   0.0000 156.0000 13.16009617    17
CTC2_L_00372029-04
1 12204U 25196BC  26037.47795139  .00000000  00000+0  00000-0 0  9994
2 12204  80.0000 336.0000 0000000   0.0000 246.0000 13.16009617    18
CTC2_L_00372030-01
1 12205U 24001LD  26037.47795139  .00000000  00000+0  00000-0 0  9999
2 12205  80.0000 348.0000 0000000   0.0000 348.0000 13.16009617    15
CTC2_L_00372030-02
1 12206U 24877LI  26037.47795139  .00000000  00000+0  00000-0 0  9991
2 12206  80.0000 348.0000 0000000   0.0000  78.0000 13.16009617    16
CTC2_L_00372030-03
1 12207U 22163RN  26037.47795139  .00000000  00000+0  00000-0 0  9998
2 12207  80.0000 348.0000 0000000   0.0000 168.0000 13.16009617    17
CTC2_L_00372030-04
1 12208U 22519SS  26037.47795139  .00000000  00000+0  00000-0 0  9994
2 12208  80.0000 348.0000 0000000   0.0000 258.0000 13.16009617    18
